{
  "type": "FeatureCollection",
  "features": [
    {
      "type": "Feature",
      "properties": {
        "norad_id": 57400,
        "name": "TIANMU-1 08",
        "group": "weather",
        "lat": 69.65104828057666,
        "lon": 24.884636598242327,
        "alt_km": 469.74081595466396,
        "timestamp": "2025-12-21T14:40:47.553475+00:00",
        "meta_object_name": "TIANMU-1 08",
        "meta_object_id": "2023-101B",
        "meta_epoch": "2025-12-21T06:30:47.925792",
        "meta_mean_motion": 15.28165817,
        "meta_eccentricity": 0.00071833,
        "meta_inclination": 97.2852,
        "meta_ra_of_asc_node": 44.7297,
        "meta_arg_of_pericenter": 59.9162,
        "meta_mean_anomaly": 300.2789,
        "meta_ephemeris_type": 0,
        "meta_classification_type": "U",
        "meta_norad_cat_id": 57400,
        "meta_element_set_no": 999,
        "meta_rev_at_epoch": 13445,
        "meta_bstar": 0.00020524572,
        "meta_mean_motion_dot": 5.565e-05,
        "meta_mean_motion_ddot": 0,
        "tle_line1": "1 57400U 23101B   25355.27138803  .00005565  00000+0  20525-3 0  9992",
        "tle_line2": "2 57400  97.2852  44.7297 0007183  59.9162 300.2789 15.28165817134455"
      },
      "geometry": {
        "type": "Point",
        "coordinates": [
          24.884636598242327,
          69.65104828057666
        ]
      }
    },
    {
      "type": "Feature",
      "properties": {
        "norad_id": 57401,
        "name": "TIANMU-1 09",
        "group": "weather",
        "lat": 34.884905392100144,
        "lon": -130.31451353036908,
        "alt_km": 478.6124789711166,
        "timestamp": "2025-12-21T14:40:47.553485+00:00",
        "meta_object_name": "TIANMU-1 09",
        "meta_object_id": "2023-101C",
        "meta_epoch": "2025-12-21T06:11:31.027200",
        "meta_mean_motion": 15.28199017,
        "meta_eccentricity": 0.00064528,
        "meta_inclination": 97.2809,
        "meta_ra_of_asc_node": 44.2256,
        "meta_arg_of_pericenter": 60.4454,
        "meta_mean_anomaly": 299.7428,
        "meta_ephemeris_type": 0,
        "meta_classification_type": "U",
        "meta_norad_cat_id": 57401,
        "meta_element_set_no": 999,
        "meta_rev_at_epoch": 13445,
        "meta_bstar": 0.00020954522,
        "meta_mean_motion_dot": 5.688e-05,
        "meta_mean_motion_ddot": 0,
        "tle_line1": "1 57401U 23101C   25355.25799800  .00005688  00000+0  20955-3 0  9994",
        "tle_line2": "2 57401  97.2809  44.2256 0006452  60.4454 299.7428 15.28199017134458"
      },
      "geometry": {
        "type": "Point",
        "coordinates": [
          -130.31451353036908,
          34.884905392100144
        ]
      }
    },
    {
      "type": "Feature",
      "properties": {
        "norad_id": 57402,
        "name": "TIANMU-1 10",
        "group": "weather",
        "lat": -43.46754199455219,
        "lon": 52.399080396000635,
        "alt_km": 489.051847829548,
        "timestamp": "2025-12-21T14:40:47.553496+00:00",
        "meta_object_name": "TIANMU-1 10",
        "meta_object_id": "2023-101D",
        "meta_epoch": "2025-12-21T05:26:33.554400",
        "meta_mean_motion": 15.28190054,
        "meta_eccentricity": 0.0008192,
        "meta_inclination": 97.2889,
        "meta_ra_of_asc_node": 45.0539,
        "meta_arg_of_pericenter": 58.9464,
        "meta_mean_anomaly": 301.258,
        "meta_ephemeris_type": 0,
        "meta_classification_type": "U",
        "meta_norad_cat_id": 57402,
        "meta_element_set_no": 999,
        "meta_rev_at_epoch": 13444,
        "meta_bstar": 0.000215234,
        "meta_mean_motion_dot": 5.845e-05,
        "meta_mean_motion_ddot": 0,
        "tle_line1": "1 57402U 23101D   25355.22677725  .00005845  00000+0  21523-3 0  9990",
        "tle_line2": "2 57402  97.2889  45.0539 0008192  58.9464 301.2580 15.28190054134445"
      },
      "geometry": {
        "type": "Point",
        "coordinates": [
          52.399080396000635,
          -43.46754199455219
        ]
      }
    },
    {
      "type": "Feature",
      "properties": {
        "norad_id": 57490,
        "name": "FENGYUN 3F",
        "group": "weather",
        "lat": 4.442640585478224,
        "lon": 63.079206307106965,
        "alt_km": 828.2002331855074,
        "timestamp": "2025-12-21T14:40:47.553506+00:00",
        "meta_object_name": "FENGYUN 3F",
        "meta_object_id": "2023-111A",
        "meta_epoch": "2025-12-21T06:12:09.635904",
        "meta_mean_motion": 14.19895703,
        "meta_eccentricity": 7.679e-05,
        "meta_inclination": 98.7073,
        "meta_ra_of_asc_node": 63.414,
        "meta_arg_of_pericenter": 114.4658,
        "meta_mean_anomaly": 245.6599,
        "meta_ephemeris_type": 0,
        "meta_classification_type": "U",
        "meta_norad_cat_id": 57490,
        "meta_element_set_no": 999,
        "meta_rev_at_epoch": 12361,
        "meta_bstar": 5.4175831e-05,
        "meta_mean_motion_dot": 7.1e-07,
        "meta_mean_motion_ddot": 0,
        "tle_line1": "1 57490U 23111A   25355.25844486  .00000071  00000+0  54176-4 0  9998",
        "tle_line2": "2 57490  98.7073  63.4140 0000767 114.4658 245.6599 14.19895703123618"
      },
      "geometry": {
        "type": "Point",
        "coordinates": [
          63.079206307106965,
          4.442640585478224
        ]
      }
    },
    {
      "type": "Feature",
      "properties": {
        "norad_id": 58584,
        "name": "ARKTIKA-M 2",
        "group": "weather",
        "lat": 59.59336681277538,
        "lon": -65.49805677673878,
        "alt_km": 34559.90854690402,
        "timestamp": "2025-12-21T14:40:47.553517+00:00",
        "meta_object_name": "ARKTIKA-M 2",
        "meta_object_id": "2023-198A",
        "meta_epoch": "2025-12-20T07:20:06.590112",
        "meta_mean_motion": 2.00602824,
        "meta_eccentricity": 0.68654675,
        "meta_inclination": 63.225,
        "meta_ra_of_asc_node": 174.0676,
        "meta_arg_of_pericenter": 268.0739,
        "meta_mean_anomaly": 18.8406,
        "meta_ephemeris_type": 0,
        "meta_classification_type": "U",
        "meta_norad_cat_id": 58584,
        "meta_element_set_no": 999,
        "meta_rev_at_epoch": 1473,
        "meta_bstar": 0,
        "meta_mean_motion_dot": 2.01e-06,
        "meta_mean_motion_ddot": 0,
        "tle_line1": "1 58584U 23198A   25354.30563183  .00000201  00000+0  00000+0 0  9992",
        "tle_line2": "2 58584  63.2250 174.0676 6865467 268.0739  18.8406  2.00602824 14734"
      },
      "geometry": {
        "type": "Point",
        "coordinates": [
          -65.49805677673878,
          59.59336681277538
        ]
      }
    },
    {
      "type": "Feature",
      "properties": {
        "norad_id": 58645,
        "name": "TIANMU-1 11",
        "group": "weather",
        "lat": 23.996401117832345,
        "lon": 11.78079366223262,
        "alt_km": 493.10181529165493,
        "timestamp": "2025-12-21T14:40:47.553531+00:00",
        "meta_object_name": "TIANMU-1 11",
        "meta_object_id": "2023-205A",
        "meta_epoch": "2025-12-21T05:07:24.334176",
        "meta_mean_motion": 15.24694159,
        "meta_eccentricity": 0.0007524,
        "meta_inclination": 97.3594,
        "meta_ra_of_asc_node": 14.6879,
        "meta_arg_of_pericenter": 274.3204,
        "meta_mean_anomaly": 85.7174,
        "meta_ephemeris_type": 0,
        "meta_classification_type": "U",
        "meta_norad_cat_id": 58645,
        "meta_element_set_no": 999,
        "meta_rev_at_epoch": 11038,
        "meta_bstar": 0.00019787801,
        "meta_mean_motion_dot": 4.825e-05,
        "meta_mean_motion_ddot": 0,
        "tle_line1": "1 58645U 23205A   25355.21347609  .00004825  00000+0  19788-3 0  9996",
        "tle_line2": "2 58645  97.3594  14.6879 0007524 274.3204  85.7174 15.24694159110383"
      },
      "geometry": {
        "type": "Point",
        "coordinates": [
          11.78079366223262,
          23.996401117832345
        ]
      }
    },
    {
      "type": "Feature",
      "properties": {
        "norad_id": 58646,
        "name": "TIANMU-1 12",
        "group": "weather",
        "lat": -52.194131303925765,
        "lon": -174.70645646296418,
        "alt_km": 495.2492422215528,
        "timestamp": "2025-12-21T14:40:47.553543+00:00",
        "meta_object_name": "TIANMU-1 12",
        "meta_object_id": "2023-205B",
        "meta_epoch": "2025-12-21T07:21:39.074400",
        "meta_mean_motion": 15.24580489,
        "meta_eccentricity": 0.00058337,
        "meta_inclination": 97.3582,
        "meta_ra_of_asc_node": 14.582,
        "meta_arg_of_pericenter": 252.3404,
        "meta_mean_anomaly": 107.7197,
        "meta_ephemeris_type": 0,
        "meta_classification_type": "U",
        "meta_norad_cat_id": 58646,
        "meta_element_set_no": 999,
        "meta_rev_at_epoch": 11038,
        "meta_bstar": 0.00019833282,
        "meta_mean_motion_dot": 4.818e-05,
        "meta_mean_motion_ddot": 0,
        "tle_line1": "1 58646U 23205B   25355.30670225  .00004818  00000+0  19833-3 0  9993",
        "tle_line2": "2 58646  97.3582  14.5820 0005833 252.3404 107.7197 15.24580489110385"
      },
      "geometry": {
        "type": "Point",
        "coordinates": [
          -174.70645646296418,
          -52.194131303925765
        ]
      }
    }
  ]
}